{
  "name": "METEOSAT",
  "date": "2020-03-18 20:59:09 CET",
  "tles": [{
    "METEOSAT-8 (MSG1)": [
      "1 27509C 02040B   20076.00000000  .00000236  00000-0  00000-0 0   761",
      "2 27509   6.5634  54.4844 0001693   9.1892 151.7542  1.00276517    11"
    ],
    "METEOSAT-9 (MSG2)": [
      "1 28912C 05049B   20076.00000000  .00000111  00000-0  00000-0 0   764",
      "2 28912   4.2287  70.4813 0001350  19.5606  87.2397  1.00273438    11"
    ],
    "METEOSAT-10 (MSG3)": [
      "1 38552C 12035B   20076.00000000  .00000153  00000-0  00000-0 0   764",
      "2 38552   0.9994   3.7342 0000337 279.1799 260.4007  1.00267821    19"
    ],
    "METEOSAT-11 (MSG4)": [
      "1 40732C 15034A   20076.00000000  .00000085  00000-0  00000-0 0   763",
      "2 40732   0.5277 225.9394 0000306 242.5387  65.3697  1.00267833    10"
    ]
  }]
}
